0 BLACK ARROW R/B
1 05581U 71093B   13282.12940903  .00001390  00000-0  32040-3 0  1361
2 05581 082.0452 023.4941 0546170 155.5250 287.2097 13.90351276101319
0 BLACK ARROW R/B
1 05581U 71093B   13283.13697521  .00001281  00000-0  29464-3 0  1374
2 05581 082.0454 022.6261 0546208 152.6880 290.3331 13.90355530101454
0 BLACK ARROW R/B
1 05581U 71093B   13285.81008933  .00001520  00000-0  35060-3 0  1391
2 05581 082.0454 020.3236 0546185 145.1638 350.0297 13.90360353101828
0 BLACK ARROW R/B
1 05581U 71093B   13287.09093356  .00001937  00000-0  44835-3 0  1400
2 05581 082.0458 019.2205 0546214 141.5604 281.0432 13.90363271102008
0 BLACK ARROW R/B
1 05581U 71093B   13288.10260109  .00001740  00000-0  40167-3 0  1412
2 05581 082.0455 018.3495 0546276 138.7216 304.7363 13.90373119102144
0 BLACK ARROW R/B
1 05581U 71093B   13289.10552517  .00001864  00000-0  43085-3 0  1420
2 05581 082.0460 017.4856 0546215 135.8957 284.7163 13.90375023102280
0 BLACK ARROW R/B
1 05581U 71093B   13290.11704285  .00001592  00000-0  36692-3 0  1439
2 05581 082.0459 016.6146 0546212 133.0520 307.7122 13.90377995102421
0 BLACK ARROW R/B
1 05581U 71093B   13291.18845258  .00001588  00000-0  36576-3 0  1440
2 05581 082.0456 015.6921 0546224 130.0381 270.5062 13.90380939102571
0 BLACK ARROW R/B
1 05581U 71093B   13292.20017384  .00001671  00000-0  38535-3 0  1456
2 05581 082.0453 014.8209 0546224 127.1934 294.5473 13.90382978102712
0 BLACK ARROW R/B
1 05581U 71093B   13293.43570433  .00001252  00000-0  28667-3 0  1462
2 05581 082.0448 013.7566 0546294 123.7280 358.8324 13.90389225102882
0 BLACK ARROW R/B
1 05581U 71093B   13294.44083836  .00001139  00000-0  26018-3 0  1473
2 05581 082.0448 012.8907 0546290 120.9023 349.9219 13.90392382103020
0 BLACK ARROW R/B
1 05581U 71093B   13295.81363731  .00001214  00000-0  27764-3 0  1484
2 05581 082.0447 011.7082 0546284 117.0430 021.3386 13.90395596103210
